STARLINK-2018_new
1 17640C 21012W   21326.13318381 -.00018483  00000-0 -12384-2 0  3269
2 17640  53.0534 273.1485 0001810  62.2338 160.2590 15.06414418    15
STARLINK-2018_old
1 27640C 21012W   21325.15678405  .00005186  00000-0  34746-3 0  3256
2 27640  53.0537 277.5314 0001822  61.6241 262.8672 15.06396444    14
